[{"OBJECT_NAME":"STARLINK-32890","OBJECT_ID":"2025-024T","EPOCH":"2026-03-09T02:43:55.229088","MEAN_MOTION":15.27592707,"ECCENTRICITY":0.00025882,"INCLINATION":43.0053,"RA_OF_ASC_NODE":328.1191,"ARG_OF_PERICENTER":263.0102,"MEAN_ANOMALY":97.0455,"EPHEMERIS_TYPE":0,"CLASSIFICATION_TYPE":"U","NORAD_CAT_ID":62896,"ELEMENT_SET_NO":999,"REV_AT_EPOCH":6218,"BSTAR":0.0016595665,"MEAN_MOTION_DOT":0.00045709,"MEAN_MOTION_DDOT":0},{"OBJECT_NAME":"KIRARI (OICETS)","OBJECT_ID":"2005-031A","EPOCH":"2026-03-09T15:02:18.043872","MEAN_MOTION":15.22934858,"ECCENTRICITY":0.0019783,"INCLINATION":98.0768,"RA_OF_ASC_NODE":316.1697,"ARG_OF_PERICENTER":5.9068,"MEAN_ANOMALY":354.2396,"EPHEMERIS_TYPE":0,"CLASSIFICATION_TYPE":"U","NORAD_CAT_ID":28809,"ELEMENT_SET_NO":999,"REV_AT_EPOCH":12344,"BSTAR":0.00027776,"MEAN_MOTION_DOT":6.472e-5,"MEAN_MOTION_DDOT":0}]
